CCSDS_OMM_VERS = 2.0
CREATION_DATE  = 
ORIGINATOR     = 

OBJECT_NAME    = COSMOS 1743
OBJECT_ID      = 1986-034A
CENTER_NAME    = EARTH
REF_FRAME      = TEME
TIME_SYSTEM    = UTC
MEAN_ELEMENT_THEORY = SGP/SGP4

EPOCH          = 2025-11-13T02:35:54.962592
MEAN_MOTION    = 15.50178341
ECCENTRICITY   = .00072849
INCLINATION    = 82.5377
RA_OF_ASC_NODE = 195.3182
ARG_OF_PERICENTER = 16.1529
MEAN_ANOMALY   = 343.9953

EPHEMERIS_TYPE = 0
CLASSIFICATION_TYPE = U
NORAD_CAT_ID   = 16719
ELEMENT_SET_NO = 999
REV_AT_EPOCH   = 16214
BSTAR          = .87814677E-3
MEAN_MOTION_DOT = .49816E-3
MEAN_MOTION_DDOT = 0

CCSDS_OMM_VERS = 2.0
CREATION_DATE  = 
ORIGINATOR     = 

OBJECT_NAME    = SL-14 R/B
OBJECT_ID      = 1986-046B
CENTER_NAME    = EARTH
REF_FRAME      = TEME
TIME_SYSTEM    = UTC
MEAN_ELEMENT_THEORY = SGP/SGP4

EPOCH          = 2025-11-13T03:26:06.073440
MEAN_MOTION    = 14.85442615
ECCENTRICITY   = .00216871
INCLINATION    = 82.4833
RA_OF_ASC_NODE = 190.2627
ARG_OF_PERICENTER = 252.3948
MEAN_ANOMALY   = 107.4900

EPHEMERIS_TYPE = 0
CLASSIFICATION_TYPE = U
NORAD_CAT_ID   = 16792
ELEMENT_SET_NO = 999
REV_AT_EPOCH   = 10910
BSTAR          = .1221071E-3
MEAN_MOTION_DOT = .108E-4
MEAN_MOTION_DDOT = 0

CCSDS_OMM_VERS = 2.0
CREATION_DATE  = 
ORIGINATOR     = 

OBJECT_NAME    = SL-14 R/B
OBJECT_ID      = 1986-055B
CENTER_NAME    = EARTH
REF_FRAME      = TEME
TIME_SYSTEM    = UTC
MEAN_ELEMENT_THEORY = SGP/SGP4

EPOCH          = 2025-11-13T06:54:55.288224
MEAN_MOTION    = 14.85485265
ECCENTRICITY   = .00190971
INCLINATION    = 82.5217
RA_OF_ASC_NODE = 236.0424
ARG_OF_PERICENTER = 2.3032
MEAN_ANOMALY   = 118.2610

EPHEMERIS_TYPE = 0
CLASSIFICATION_TYPE = U
NORAD_CAT_ID   = 16882
ELEMENT_SET_NO = 999
REV_AT_EPOCH   = 10208
BSTAR          = .15453662E-3
MEAN_MOTION_DOT = .1361E-4
MEAN_MOTION_DDOT = 0

CCSDS_OMM_VERS = 2.0
CREATION_DATE  = 
ORIGINATOR     = 

OBJECT_NAME    = AJISAI (EGS)
OBJECT_ID      = 1986-061A
CENTER_NAME    = EARTH
REF_FRAME      = TEME
TIME_SYSTEM    = UTC
MEAN_ELEMENT_THEORY = SGP/SGP4

EPOCH          = 2025-11-13T08:08:15.383616
MEAN_MOTION    = 12.44514148
ECCENTRICITY   = .00111904
INCLINATION    = 50.0084
RA_OF_ASC_NODE = 91.1203
ARG_OF_PERICENTER = 351.8573
MEAN_ANOMALY   = 25.4845

EPHEMERIS_TYPE = 0
CLASSIFICATION_TYPE = U
NORAD_CAT_ID   = 16908
ELEMENT_SET_NO = 999
REV_AT_EPOCH   = 45351
BSTAR          = .54498197E-4
MEAN_MOTION_DOT = -.9E-6
MEAN_MOTION_DDOT = 0

CCSDS_OMM_VERS = 2.0
CREATION_DATE  = 
ORIGINATOR     = 

OBJECT_NAME    = COSMOS 1812
OBJECT_ID      = 1987-003A
CENTER_NAME    = EARTH
REF_FRAME      = TEME
TIME_SYSTEM    = UTC
MEAN_ELEMENT_THEORY = SGP/SGP4

EPOCH          = 2025-11-13T01:43:45.173568
MEAN_MOTION    = 15.69482920
ECCENTRICITY   = .0004974
INCLINATION    = 82.4887
RA_OF_ASC_NODE = 323.9810
ARG_OF_PERICENTER = 136.7895
MEAN_ANOMALY   = 223.3757

EPHEMERIS_TYPE = 0
CLASSIFICATION_TYPE = U
NORAD_CAT_ID   = 17295
ELEMENT_SET_NO = 999
REV_AT_EPOCH   = 12599
BSTAR          = .82467102E-3
MEAN_MOTION_DOT = .97869E-3
MEAN_MOTION_DDOT = 0

CCSDS_OMM_VERS = 2.0
CREATION_DATE  = 
ORIGINATOR     = 

OBJECT_NAME    = SL-14 R/B
OBJECT_ID      = 1987-024B
CENTER_NAME    = EARTH
REF_FRAME      = TEME
TIME_SYSTEM    = UTC
MEAN_ELEMENT_THEORY = SGP/SGP4

EPOCH          = 2025-11-13T03:38:08.201184
MEAN_MOTION    = 14.85982453
ECCENTRICITY   = .00168612
INCLINATION    = 82.5302
RA_OF_ASC_NODE = 202.2459
ARG_OF_PERICENTER = 288.6855
MEAN_ANOMALY   = 71.2530

EPHEMERIS_TYPE = 0
CLASSIFICATION_TYPE = U
NORAD_CAT_ID   = 17567
ELEMENT_SET_NO = 999
REV_AT_EPOCH   = 7082
BSTAR          = .12908669E-3
MEAN_MOTION_DOT = .1153E-4
MEAN_MOTION_DDOT = 0

CCSDS_OMM_VERS = 2.0
CREATION_DATE  = 
ORIGINATOR     = 

OBJECT_NAME    = COSMOS 1833
OBJECT_ID      = 1987-027A
CENTER_NAME    = EARTH
REF_FRAME      = TEME
TIME_SYSTEM    = UTC
MEAN_ELEMENT_THEORY = SGP/SGP4

EPOCH          = 2025-11-13T03:02:56.163552
MEAN_MOTION    = 14.13019924
ECCENTRICITY   = .00212294
INCLINATION    = 70.9148
RA_OF_ASC_NODE = 211.0274
ARG_OF_PERICENTER = 13.4599
MEAN_ANOMALY   = 346.7084

EPHEMERIS_TYPE = 0
CLASSIFICATION_TYPE = U
NORAD_CAT_ID   = 17589
ELEMENT_SET_NO = 999
REV_AT_EPOCH   = 99384
BSTAR          = -.75388639E-4
MEAN_MOTION_DOT = -.189E-5
MEAN_MOTION_DDOT = 0

CCSDS_OMM_VERS = 2.0
CREATION_DATE  = 
ORIGINATOR     = 

OBJECT_NAME    = SL-16 R/B
OBJECT_ID      = 1987-027B
CENTER_NAME    = EARTH
REF_FRAME      = TEME
TIME_SYSTEM    = UTC
MEAN_ELEMENT_THEORY = SGP/SGP4

EPOCH          = 2025-11-13T00:22:16.724640
MEAN_MOTION    = 14.17147827
ECCENTRICITY   = .00072041
INCLINATION    = 71.0008
RA_OF_ASC_NODE = 162.3527
ARG_OF_PERICENTER = 290.9738
MEAN_ANOMALY   = 69.0615

EPHEMERIS_TYPE = 0
CLASSIFICATION_TYPE = U
NORAD_CAT_ID   = 17590
ELEMENT_SET_NO = 999
REV_AT_EPOCH   = 99885
BSTAR          = .21071946E-4
MEAN_MOTION_DOT = -.6E-7
MEAN_MOTION_DDOT = 0

CCSDS_OMM_VERS = 2.0
CREATION_DATE  = 
ORIGINATOR     = 

OBJECT_NAME    = SL-14 R/B
OBJECT_ID      = 1987-038B
CENTER_NAME    = EARTH
REF_FRAME      = TEME
TIME_SYSTEM    = UTC
MEAN_ELEMENT_THEORY = SGP/SGP4

EPOCH          = 2025-11-13T06:55:45.078816
MEAN_MOTION    = 14.85219201
ECCENTRICITY   = .00191697
INCLINATION    = 82.5037
RA_OF_ASC_NODE = 46.4342
ARG_OF_PERICENTER = 185.0862
MEAN_ANOMALY   = 175.0163

EPHEMERIS_TYPE = 0
CLASSIFICATION_TYPE = U
NORAD_CAT_ID   = 17912
ELEMENT_SET_NO = 999
REV_AT_EPOCH   = 6195
BSTAR          = .14087322E-3
MEAN_MOTION_DOT = .1235E-4
MEAN_MOTION_DDOT = 0

CCSDS_OMM_VERS = 2.0
CREATION_DATE  = 
ORIGINATOR     = 

OBJECT_NAME    = COSMOS 1844
OBJECT_ID      = 1987-041A
CENTER_NAME    = EARTH
REF_FRAME      = TEME
TIME_SYSTEM    = UTC
MEAN_ELEMENT_THEORY = SGP/SGP4

EPOCH          = 2025-11-13T05:09:23.805504
MEAN_MOTION    = 14.14522338
ECCENTRICITY   = .00316486
INCLINATION    = 70.8989
RA_OF_ASC_NODE = 279.8423
ARG_OF_PERICENTER = 201.5479
MEAN_ANOMALY   = 158.4313

EPHEMERIS_TYPE = 0
CLASSIFICATION_TYPE = U
NORAD_CAT_ID   = 17973
ELEMENT_SET_NO = 999
REV_AT_EPOCH   = 98711
BSTAR          = .29257415E-3
MEAN_MOTION_DOT = .516E-5
MEAN_MOTION_DDOT = 0

CCSDS_OMM_VERS = 2.0
CREATION_DATE  = 
ORIGINATOR     = 

OBJECT_NAME    = SL-14 R/B
OBJECT_ID      = 1987-055B
CENTER_NAME    = EARTH
REF_FRAME      = TEME
TIME_SYSTEM    = UTC
MEAN_ELEMENT_THEORY = SGP/SGP4

EPOCH          = 2025-11-13T03:37:33.105504
MEAN_MOTION    = 14.85474570
ECCENTRICITY   = .00216864
INCLINATION    = 82.4974
RA_OF_ASC_NODE = 98.8718
ARG_OF_PERICENTER = 42.0289
MEAN_ANOMALY   = 318.2586

EPHEMERIS_TYPE = 0
CLASSIFICATION_TYPE = U
NORAD_CAT_ID   = 18153
ELEMENT_SET_NO = 999
REV_AT_EPOCH   = 5263
BSTAR          = .13812506E-3
MEAN_MOTION_DOT = .122E-4
MEAN_MOTION_DDOT = 0

CCSDS_OMM_VERS = 2.0
CREATION_DATE  = 
ORIGINATOR     = 

OBJECT_NAME    = COSMOS 1867
OBJECT_ID      = 1987-060A
CENTER_NAME    = EARTH
REF_FRAME      = TEME
TIME_SYSTEM    = UTC
MEAN_ELEMENT_THEORY = SGP/SGP4

EPOCH          = 2025-11-13T06:15:15.630048
MEAN_MOTION    = 14.31479125
ECCENTRICITY   = .00137056
INCLINATION    = 65.0103
RA_OF_ASC_NODE = 272.7541
ARG_OF_PERICENTER = 268.1932
MEAN_ANOMALY   = 91.7583

EPHEMERIS_TYPE = 0
CLASSIFICATION_TYPE = U
NORAD_CAT_ID   = 18187
ELEMENT_SET_NO = 999
REV_AT_EPOCH   = 327
BSTAR          = .72390927E-4
MEAN_MOTION_DOT = .93E-6
MEAN_MOTION_DDOT = 0

